STARLINK-36676          
1 67912U 26036J   26059.25002315 -.01468750  62488-3 -37781-2 0  9994
2 67912  42.9966 307.7999 0002041 276.1628  75.9869 15.94372336  2139
STARLINK-36690          
1 67913U 26036K   26059.25002315 -.01465140  62301-3 -37378-2 0  9991
2 67913  42.9966 307.7944 0002062 276.0050  78.2782 15.94526005  2135
STARLINK-36724          
1 67914U 26036L   26059.25002315 -.01465433  62514-3 -36782-2 0  9991
2 67914  42.9964 307.7842 0002086 276.4625  81.7428 15.94829055  2136
STARLINK-36723          
1 67915U 26036M   26059.25002315 -.01477345  63361-3 -37365-2 0  9996
2 67915  42.9966 307.7890 0002075 274.3852  82.0262 15.94688998  2138
STARLINK-36721          
1 67916U 26036N   26059.25002315 -.01456988  61947-3 -36273-2 0  9992
2 67916  42.9967 307.7790 0002098 277.6866  82.7473 15.94979307  2133
STARLINK-36722          
1 67917U 26036P   26059.25002315 -.01458158  62131-3 -36012-2 0  9991
2 67917  42.9967 307.7741 0002054 274.8253  87.5170 15.95127953  2131
STARLINK-36341          
1 67918U 26036Q   26059.25002315 -.01450856  61743-3 -35267-2 0  9998
2 67918  42.9967 307.7644 0002091 274.9510  91.2540 15.95420370  2134
STARLINK-36663          
1 67919U 26036R   26059.25002315 -.01454108  61906-3 -35629-2 0  9996
2 67919  42.9969 307.7694 0002037 277.1105  87.1658 15.95274016  2135
STARLINK-36375          
1 67920U 26036S   26059.25002315 -.01438886  60900-3 -34704-2 0  9999
2 67920  42.9968 307.7594 0002068 277.3633  90.8899 15.95562903  2130
STARLINK-36405          
1 67921U 26036T   26059.25002315 -.01439698  61051-3 -34456-2 0  9994
2 67921  42.9968 307.7549 0002040 275.6869  94.3399 15.95705044  2132
STARLINK-36383          
1 67922U 26036U   26059.25002315 -.01435673  60828-3 -34087-2 0  9995
2 67922  42.9970 307.7497 0002057 276.0426  96.0545 15.95851092  2137
STARLINK-36406          
1 67923U 26036V   26059.25002315 -.01430125  60483-3 -33696-2 0  9995
2 67923  42.9970 307.7451 0002048 276.7335  97.2082 15.95990714  2138
