CCSDS_OMM_VERS = 2.0
CREATION_DATE  = 
ORIGINATOR     = 

OBJECT_NAME    = STARLINK-36676
OBJECT_ID      = 2026-036J
CENTER_NAME    = EARTH
REF_FRAME      = TEME
TIME_SYSTEM    = UTC
MEAN_ELEMENT_THEORY = SGP/SGP4

EPOCH          = 2026-02-28T06:00:02.000160
MEAN_MOTION    = 15.94372336
ECCENTRICITY   = .00020416
INCLINATION    = 42.9966
RA_OF_ASC_NODE = 307.7999
ARG_OF_PERICENTER = 276.1628
MEAN_ANOMALY   = 75.9869

EPHEMERIS_TYPE = 0
CLASSIFICATION_TYPE = U
NORAD_CAT_ID   = 67912
ELEMENT_SET_NO = 999
REV_AT_EPOCH   = 213
BSTAR          = -.37781312E-2
MEAN_MOTION_DOT = -.146875E-1
MEAN_MOTION_DDOT = .62487617E-3

CCSDS_OMM_VERS = 2.0
CREATION_DATE  = 
ORIGINATOR     = 

OBJECT_NAME    = STARLINK-36690
OBJECT_ID      = 2026-036K
CENTER_NAME    = EARTH
REF_FRAME      = TEME
TIME_SYSTEM    = UTC
MEAN_ELEMENT_THEORY = SGP/SGP4

EPOCH          = 2026-02-28T06:00:02.000160
MEAN_MOTION    = 15.94526005
ECCENTRICITY   = .00020622
INCLINATION    = 42.9966
RA_OF_ASC_NODE = 307.7944
ARG_OF_PERICENTER = 276.0050
MEAN_ANOMALY   = 78.2782

EPHEMERIS_TYPE = 0
CLASSIFICATION_TYPE = U
NORAD_CAT_ID   = 67913
ELEMENT_SET_NO = 999
REV_AT_EPOCH   = 213
BSTAR          = -.3737818E-2
MEAN_MOTION_DOT = -.146514E-1
MEAN_MOTION_DDOT = .62301365E-3

CCSDS_OMM_VERS = 2.0
CREATION_DATE  = 
ORIGINATOR     = 

OBJECT_NAME    = STARLINK-36724
OBJECT_ID      = 2026-036L
CENTER_NAME    = EARTH
REF_FRAME      = TEME
TIME_SYSTEM    = UTC
MEAN_ELEMENT_THEORY = SGP/SGP4

EPOCH          = 2026-02-28T06:00:02.000160
MEAN_MOTION    = 15.94829055
ECCENTRICITY   = .00020861
INCLINATION    = 42.9964
RA_OF_ASC_NODE = 307.7842
ARG_OF_PERICENTER = 276.4625
MEAN_ANOMALY   = 81.7428

EPHEMERIS_TYPE = 0
CLASSIFICATION_TYPE = U
NORAD_CAT_ID   = 67914
ELEMENT_SET_NO = 999
REV_AT_EPOCH   = 213
BSTAR          = -.36781938E-2
MEAN_MOTION_DOT = -.1465433E-1
MEAN_MOTION_DDOT = .62513565E-3

CCSDS_OMM_VERS = 2.0
CREATION_DATE  = 
ORIGINATOR     = 

OBJECT_NAME    = STARLINK-36723
OBJECT_ID      = 2026-036M
CENTER_NAME    = EARTH
REF_FRAME      = TEME
TIME_SYSTEM    = UTC
MEAN_ELEMENT_THEORY = SGP/SGP4

EPOCH          = 2026-02-28T06:00:02.000160
MEAN_MOTION    = 15.94688998
ECCENTRICITY   = .00020755
INCLINATION    = 42.9966
RA_OF_ASC_NODE = 307.7890
ARG_OF_PERICENTER = 274.3852
MEAN_ANOMALY   = 82.0262

EPHEMERIS_TYPE = 0
CLASSIFICATION_TYPE = U
NORAD_CAT_ID   = 67915
ELEMENT_SET_NO = 999
REV_AT_EPOCH   = 213
BSTAR          = -.37364998E-2
MEAN_MOTION_DOT = -.1477345E-1
MEAN_MOTION_DDOT = .63360647E-3

CCSDS_OMM_VERS = 2.0
CREATION_DATE  = 
ORIGINATOR     = 

OBJECT_NAME    = STARLINK-36721
OBJECT_ID      = 2026-036N
CENTER_NAME    = EARTH
REF_FRAME      = TEME
TIME_SYSTEM    = UTC
MEAN_ELEMENT_THEORY = SGP/SGP4

EPOCH          = 2026-02-28T06:00:02.000160
MEAN_MOTION    = 15.94979307
ECCENTRICITY   = .00020987
INCLINATION    = 42.9967
RA_OF_ASC_NODE = 307.7790
ARG_OF_PERICENTER = 277.6866
MEAN_ANOMALY   = 82.7473

EPHEMERIS_TYPE = 0
CLASSIFICATION_TYPE = U
NORAD_CAT_ID   = 67916
ELEMENT_SET_NO = 999
REV_AT_EPOCH   = 213
BSTAR          = -.36272562E-2
MEAN_MOTION_DOT = -.1456988E-1
MEAN_MOTION_DDOT = .61947252E-3

CCSDS_OMM_VERS = 2.0
CREATION_DATE  = 
ORIGINATOR     = 

OBJECT_NAME    = STARLINK-36722
OBJECT_ID      = 2026-036P
CENTER_NAME    = EARTH
REF_FRAME      = TEME
TIME_SYSTEM    = UTC
MEAN_ELEMENT_THEORY = SGP/SGP4

EPOCH          = 2026-02-28T06:00:02.000160
MEAN_MOTION    = 15.95127953
ECCENTRICITY   = .00020548
INCLINATION    = 42.9967
RA_OF_ASC_NODE = 307.7741
ARG_OF_PERICENTER = 274.8253
MEAN_ANOMALY   = 87.5170

EPHEMERIS_TYPE = 0
CLASSIFICATION_TYPE = U
NORAD_CAT_ID   = 67917
ELEMENT_SET_NO = 999
REV_AT_EPOCH   = 213
BSTAR          = -.36012387E-2
MEAN_MOTION_DOT = -.1458158E-1
MEAN_MOTION_DDOT = .62131448E-3

CCSDS_OMM_VERS = 2.0
CREATION_DATE  = 
ORIGINATOR     = 

OBJECT_NAME    = STARLINK-36341
OBJECT_ID      = 2026-036Q
CENTER_NAME    = EARTH
REF_FRAME      = TEME
TIME_SYSTEM    = UTC
MEAN_ELEMENT_THEORY = SGP/SGP4

EPOCH          = 2026-02-28T06:00:02.000160
MEAN_MOTION    = 15.95420370
ECCENTRICITY   = .00020915
INCLINATION    = 42.9967
RA_OF_ASC_NODE = 307.7644
ARG_OF_PERICENTER = 274.9510
MEAN_ANOMALY   = 91.2540

EPHEMERIS_TYPE = 0
CLASSIFICATION_TYPE = U
NORAD_CAT_ID   = 67918
ELEMENT_SET_NO = 999
REV_AT_EPOCH   = 213
BSTAR          = -.35267198E-2
MEAN_MOTION_DOT = -.1450856E-1
MEAN_MOTION_DDOT = .6174343E-3

CCSDS_OMM_VERS = 2.0
CREATION_DATE  = 
ORIGINATOR     = 

OBJECT_NAME    = STARLINK-36663
OBJECT_ID      = 2026-036R
CENTER_NAME    = EARTH
REF_FRAME      = TEME
TIME_SYSTEM    = UTC
MEAN_ELEMENT_THEORY = SGP/SGP4

EPOCH          = 2026-02-28T06:00:02.000160
MEAN_MOTION    = 15.95274016
ECCENTRICITY   = .00020379
INCLINATION    = 42.9969
RA_OF_ASC_NODE = 307.7694
ARG_OF_PERICENTER = 277.1105
MEAN_ANOMALY   = 87.1658

EPHEMERIS_TYPE = 0
CLASSIFICATION_TYPE = U
NORAD_CAT_ID   = 67919
ELEMENT_SET_NO = 999
REV_AT_EPOCH   = 213
BSTAR          = -.35628877E-2
MEAN_MOTION_DOT = -.1454108E-1
MEAN_MOTION_DDOT = .61906119E-3

CCSDS_OMM_VERS = 2.0
CREATION_DATE  = 
ORIGINATOR     = 

OBJECT_NAME    = STARLINK-36375
OBJECT_ID      = 2026-036S
CENTER_NAME    = EARTH
REF_FRAME      = TEME
TIME_SYSTEM    = UTC
MEAN_ELEMENT_THEORY = SGP/SGP4

EPOCH          = 2026-02-28T06:00:02.000160
MEAN_MOTION    = 15.95562903
ECCENTRICITY   = .0002068
INCLINATION    = 42.9968
RA_OF_ASC_NODE = 307.7594
ARG_OF_PERICENTER = 277.3633
MEAN_ANOMALY   = 90.8899

EPHEMERIS_TYPE = 0
CLASSIFICATION_TYPE = U
NORAD_CAT_ID   = 67920
ELEMENT_SET_NO = 999
REV_AT_EPOCH   = 213
BSTAR          = -.3470354E-2
MEAN_MOTION_DOT = -.1438886E-1
MEAN_MOTION_DDOT = .60899619E-3

CCSDS_OMM_VERS = 2.0
CREATION_DATE  = 
ORIGINATOR     = 

OBJECT_NAME    = STARLINK-36405
OBJECT_ID      = 2026-036T
CENTER_NAME    = EARTH
REF_FRAME      = TEME
TIME_SYSTEM    = UTC
MEAN_ELEMENT_THEORY = SGP/SGP4

EPOCH          = 2026-02-28T06:00:02.000160
MEAN_MOTION    = 15.95705044
ECCENTRICITY   = .00020401
INCLINATION    = 42.9968
RA_OF_ASC_NODE = 307.7549
ARG_OF_PERICENTER = 275.6869
MEAN_ANOMALY   = 94.3399

EPHEMERIS_TYPE = 0
CLASSIFICATION_TYPE = U
NORAD_CAT_ID   = 67921
ELEMENT_SET_NO = 999
REV_AT_EPOCH   = 213
BSTAR          = -.34456406E-2
MEAN_MOTION_DOT = -.1439698E-1
MEAN_MOTION_DDOT = .61050566E-3

CCSDS_OMM_VERS = 2.0
CREATION_DATE  = 
ORIGINATOR     = 

OBJECT_NAME    = STARLINK-36383
OBJECT_ID      = 2026-036U
CENTER_NAME    = EARTH
REF_FRAME      = TEME
TIME_SYSTEM    = UTC
MEAN_ELEMENT_THEORY = SGP/SGP4

EPOCH          = 2026-02-28T06:00:02.000160
MEAN_MOTION    = 15.95851092
ECCENTRICITY   = .00020572
INCLINATION    = 42.9970
RA_OF_ASC_NODE = 307.7497
ARG_OF_PERICENTER = 276.0426
MEAN_ANOMALY   = 96.0545

EPHEMERIS_TYPE = 0
CLASSIFICATION_TYPE = U
NORAD_CAT_ID   = 67922
ELEMENT_SET_NO = 999
REV_AT_EPOCH   = 213
BSTAR          = -.34086717E-2
MEAN_MOTION_DOT = -.1435673E-1
MEAN_MOTION_DDOT = .60827885E-3

CCSDS_OMM_VERS = 2.0
CREATION_DATE  = 
ORIGINATOR     = 

OBJECT_NAME    = STARLINK-36406
OBJECT_ID      = 2026-036V
CENTER_NAME    = EARTH
REF_FRAME      = TEME
TIME_SYSTEM    = UTC
MEAN_ELEMENT_THEORY = SGP/SGP4

EPOCH          = 2026-02-28T06:00:02.000160
MEAN_MOTION    = 15.95990714
ECCENTRICITY   = .0002048
INCLINATION    = 42.9970
RA_OF_ASC_NODE = 307.7451
ARG_OF_PERICENTER = 276.7335
MEAN_ANOMALY   = 97.2082

EPHEMERIS_TYPE = 0
CLASSIFICATION_TYPE = U
NORAD_CAT_ID   = 67923
ELEMENT_SET_NO = 999
REV_AT_EPOCH   = 213
BSTAR          = -.33695943E-2
MEAN_MOTION_DOT = -.1430125E-1
MEAN_MOTION_DDOT = .60483132E-3

